start=new Date('2023-06-17T00:00:00.000Z').valueOf();
sats=[{"ELEMENT_SET_NO":"999","CENTER_NAME":"EARTH","MEAN_MOTION_DDOT":"0.0000000000000","SITE":"AFETR","TLE_LINE1":"1 46334U 20062K   23167.67591177  .00001461  00000-0  11695-3 0  9999","SEMIMAJOR_AXIS":"6925.346","DECAY_DATE":null,"MEAN_MOTION":"15.06400747","EPOCH":"2023-06-16T16:13:18.776928","EPHEMERIS_TYPE":"0","BSTAR":"0.00011695000000","PERIOD":"95.592","OBJECT_TYPE":"PAYLOAD","INCLINATION":"53.0537","CLASSIFICATION_TYPE":"U","COUNTRY_CODE":"US","OBJECT_ID":"2020-062K","RA_OF_ASC_NODE":"152.6632","TIME_SYSTEM":"UTC","OBJECT_NAME":"STARLINK-1725","ARG_OF_PERICENTER":"95.7907","REV_AT_EPOCH":"15431","MEAN_MOTION_DOT":"0.00001461","TLE_LINE2":"2 46334  53.0537 152.6632 0001166  95.7907 264.3215 15.06400747154312","MEAN_ANOMALY":"264.3215","PERIAPSIS":"546.404","MEAN_ELEMENT_THEORY":"SGP4","ECCENTRICITY":"0.00011660","APOAPSIS":"548.019","LAUNCH_DATE":"2020-09-03","GP_ID":"234091130","REF_FRAME":"TEME","FILE":"3934949","NORAD_CAT_ID":"46334","RCS_SIZE":"LARGE"},{"MEAN_ANOMALY":"277.1388","PERIAPSIS":"546.499","MEAN_ELEMENT_THEORY":"SGP4","ECCENTRICITY":"0.00010290","APOAPSIS":"547.924","LAUNCH_DATE":"2020-09-03","REF_FRAME":"TEME","GP_ID":"234092378","FILE":"3934949","RCS_SIZE":"LARGE","NORAD_CAT_ID":"46335","TIME_SYSTEM":"UTC","OBJECT_NAME":"STARLINK-1727","ARG_OF_PERICENTER":"82.9718","REV_AT_EPOCH":"15404","MEAN_MOTION_DOT":"0.00001616","TLE_LINE2":"2 46335  53.0537 172.2618 0001029  82.9718 277.1388 15.06400609154041","CLASSIFICATION_TYPE":"U","COUNTRY_CODE":"US","OBJECT_ID":"2020-062L","RA_OF_ASC_NODE":"172.2618","ELEMENT_SET_NO":"999","CENTER_NAME":"EARTH","SITE":"AFETR","MEAN_MOTION_DDOT":"0.0000000000000","TLE_LINE1":"1 46335U 20062L   23167.70353210  .00001616  00000-0  12732-3 0  9993","SEMIMAJOR_AXIS":"6925.347","DECAY_DATE":null,"MEAN_MOTION":"15.06400609","EPOCH":"2023-06-16T16:53:05.173440","EPHEMERIS_TYPE":"0","BSTAR":"0.00012732000000","PERIOD":"95.592","OBJECT_TYPE":"PAYLOAD","INCLINATION":"53.0537"},{"OBJECT_ID":"2020-062M","RA_OF_ASC_NODE":"152.3051","COUNTRY_CODE":"US","CLASSIFICATION_TYPE":"U","EPOCH":"2023-06-16T16:39:48.418560","EPHEMERIS_TYPE":"0","MEAN_MOTION":"15.06400555","INCLINATION":"53.0541","OBJECT_TYPE":"PAYLOAD","PERIOD":"95.592","BSTAR":"0.00011794000000","TLE_LINE1":"1 46336U 20062M   23167.69431040  .00001476  00000-0  11794-3 0  9991","SEMIMAJOR_AXIS":"6925.347","MEAN_MOTION_DDOT":"0.0000000000000","SITE":"AFETR","ELEMENT_SET_NO":"999","CENTER_NAME":"EARTH","DECAY_DATE":null,"REF_FRAME":"TEME","GP_ID":"234092618","FILE":"3934949","NORAD_CAT_ID":"46336","RCS_SIZE":"LARGE","ECCENTRICITY":"0.00010120","PERIAPSIS":"546.511","MEAN_ANOMALY":"273.2719","MEAN_ELEMENT_THEORY":"SGP4","LAUNCH_DATE":"2020-09-03","APOAPSIS":"547.913","MEAN_MOTION_DOT":"0.00001476","TLE_LINE2":"2 46336  53.0541 152.3051 0001012  86.8386 273.2719 15.06400555154318","REV_AT_EPOCH":"15431","ARG_OF_PERICENTER":"86.8386","OBJECT_NAME":"STARLINK-1738","TIME_SYSTEM":"UTC"},{"CLASSIFICATION_TYPE":"U","COUNTRY_CODE":"US","RA_OF_ASC_NODE":"154.3204","OBJECT_ID":"2020-062N","DECAY_DATE":null,"ELEMENT_SET_NO":"999","CENTER_NAME":"EARTH","MEAN_MOTION_DDOT":"0.0000000000000","SITE":"AFETR","SEMIMAJOR_AXIS":"6925.363","TLE_LINE1":"1 46337U 20062N   23167.24463104  .00000474  00000-0  50700-4 0  9997","BSTAR":"0.00005070000000","PERIOD":"95.592","OBJECT_TYPE":"PAYLOAD","INCLINATION":"53.0540","MEAN_MOTION":"15.06395362","EPHEMERIS_TYPE":"0","EPOCH":"2023-06-16T05:52:16.121856","APOAPSIS":"548.030","LAUNCH_DATE":"2020-09-03","PERIAPSIS":"546.425","MEAN_ANOMALY":"277.7079","MEAN_ELEMENT_THEORY":"SGP4","ECCENTRICITY":"0.00011590","FILE":"3934686","RCS_SIZE":"LARGE","NORAD_CAT_ID":"46337","GP_ID":"234059986","REF_FRAME":"TEME","TIME_SYSTEM":"UTC","OBJECT_NAME":"STARLINK-1750","ARG_OF_PERICENTER":"82.4042","REV_AT_EPOCH":"15425","TLE_LINE2":"2 46337  53.0540 154.3204 0001159  82.4042 277.7079 15.06395362154253","MEAN_MOTION_DOT":"0.00000474"},{"MEAN_MOTION_DOT":"0.00000992","TLE_LINE2":"2 46338  53.0538 174.0980 0001188  81.5174 278.5949 15.06399144153974","REV_AT_EPOCH":"15397","ARG_OF_PERICENTER":"81.5174","OBJECT_NAME":"STARLINK-1752","TIME_SYSTEM":"UTC","GP_ID":"234059737","REF_FRAME":"TEME","NORAD_CAT_ID":"46338","FILE":"3934686","RCS_SIZE":"LARGE","ECCENTRICITY":"0.00011880","PERIAPSIS":"546.393","MEAN_ELEMENT_THEORY":"SGP4","MEAN_ANOMALY":"278.5949","LAUNCH_DATE":"2020-09-03","APOAPSIS":"548.039","EPOCH":"2023-06-16T07:03:55.105056","EPHEMERIS_TYPE":"0","MEAN_MOTION":"15.06399144","INCLINATION":"53.0538","OBJECT_TYPE":"PAYLOAD","PERIOD":"95.592","BSTAR":"0.00008548600000","SEMIMAJOR_AXIS":"6925.351","TLE_LINE1":"1 46338U 20062P   23167.29438779  .00000992  00000-0  85486-4 0  9997","MEAN_MOTION_DDOT":"0.0000000000000","SITE":"AFETR","ELEMENT_SET_NO":"999","CENTER_NAME":"EARTH","DECAY_DATE":null,"OBJECT_ID":"2020-062P","RA_OF_ASC_NODE":"174.0980","COUNTRY_CODE":"US","CLASSIFICATION_TYPE":"U"},{"OBJECT_ID":"2020-062R","RA_OF_ASC_NODE":"172.1383","CLASSIFICATION_TYPE":"U","COUNTRY_CODE":"US","MEAN_MOTION":"15.06395754","EPOCH":"2023-06-16T17:35:32.658432","EPHEMERIS_TYPE":"0","PERIOD":"95.592","BSTAR":"0.00011227000000","INCLINATION":"53.0540","OBJECT_TYPE":"PAYLOAD","MEAN_MOTION_DDOT":"0.0000000000000","SITE":"AFETR","ELEMENT_SET_NO":"999","CENTER_NAME":"EARTH","TLE_LINE1":"1 46340U 20062R   23167.73301688  .00001391  00000-0  11227-3 0  9992","SEMIMAJOR_AXIS":"6925.362","DECAY_DATE":null,"REF_FRAME":"TEME","GP_ID":"234091879","FILE":"3934949","RCS_SIZE":"LARGE","NORAD_CAT_ID":"46340","ECCENTRICITY":"0.00009630","PERIAPSIS":"546.560","MEAN_ELEMENT_THEORY":"SGP4","MEAN_ANOMALY":"267.4549","APOAPSIS":"547.893","LAUNCH_DATE":"2020-09-03","MEAN_MOTION_DOT":"0.00001391","TLE_LINE2":"2 46340  53.0540 172.1383 0000963  92.6550 267.4549 15.06395754154031","OBJECT_NAME":"STARLINK-1759","TIME_SYSTEM":"UTC","REV_AT_EPOCH":"15403","ARG_OF_PERICENTER":"92.6550"},{"BSTAR":"0.00015667000000","PERIOD":"95.592","OBJECT_TYPE":"PAYLOAD","INCLINATION":"53.0537","MEAN_MOTION":"15.06399152","EPHEMERIS_TYPE":"0","EPOCH":"2023-06-16T16:07:57.357696","DECAY_DATE":null,"CENTER_NAME":"EARTH","ELEMENT_SET_NO":"999","MEAN_MOTION_DDOT":"0.0000000000000","SITE":"AFETR","TLE_LINE1":"1 46341U 20062S   23167.67219164  .00002053  00000-0  15667-3 0  9991","SEMIMAJOR_AXIS":"6925.351","RA_OF_ASC_NODE":"152.3997","OBJECT_ID":"2020-062S","CLASSIFICATION_TYPE":"U","COUNTRY_CODE":"US","TLE_LINE2":"2 46341  53.0537 152.3997 0000940  88.2211 271.8886 15.06399152154320","MEAN_MOTION_DOT":"0.00002053","TIME_SYSTEM":"UTC","OBJECT_NAME":"STARLINK-1760","ARG_OF_PERICENTER":"88.2211","REV_AT_EPOCH":"15432","FILE":"3934949","RCS_SIZE":"LARGE","NORAD_CAT_ID":"46341","GP_ID":"234092119","REF_FRAME":"TEME","APOAPSIS":"547.867","LAUNCH_DATE":"2020-09-03","MEAN_ELEMENT_THEORY":"SGP4","PERIAPSIS":"546.565","MEAN_ANOMALY":"271.8886","ECCENTRICITY":"0.00009400"},{"RA_OF_ASC_NODE":"172.1991","OBJECT_ID":"2020-062T","CLASSIFICATION_TYPE":"U","COUNTRY_CODE":"US","BSTAR":"0.00008608700000","PERIOD":"95.592","OBJECT_TYPE":"PAYLOAD","INCLINATION":"53.0542","MEAN_MOTION":"15.06398933","EPHEMERIS_TYPE":"0","EPOCH":"2023-06-16T17:14:18.643776","DECAY_DATE":null,"ELEMENT_SET_NO":"999","CENTER_NAME":"EARTH","MEAN_MOTION_DDOT":"0.0000000000000","SITE":"AFETR","TLE_LINE1":"1 46342U 20062T   23167.71827134  .00001001  00000-0  86087-4 0  9996","SEMIMAJOR_AXIS":"6925.352","RCS_SIZE":"LARGE","FILE":"3934949","NORAD_CAT_ID":"46342","GP_ID":"234090881","REF_FRAME":"TEME","APOAPSIS":"548.000","LAUNCH_DATE":"2020-09-03","PERIAPSIS":"546.434","MEAN_ELEMENT_THEORY":"SGP4","MEAN_ANOMALY":"273.0371","ECCENTRICITY":"0.00011310","TLE_LINE2":"2 46342  53.0542 172.1991 0001131  87.0747 273.0371 15.06398933154043","MEAN_MOTION_DOT":"0.00001001","TIME_SYSTEM":"UTC","OBJECT_NAME":"STARLINK-1762","ARG_OF_PERICENTER":"87.0747","REV_AT_EPOCH":"15404"},{"SEMIMAJOR_AXIS":"6925.366","TLE_LINE1":"1 46343U 20062U   23167.38100887  .00000364  00000-0  43342-4 0  9997","SITE":"AFETR","MEAN_MOTION_DDOT":"0.0000000000000","ELEMENT_SET_NO":"999","CENTER_NAME":"EARTH","DECAY_DATE":null,"EPOCH":"2023-06-16T09:08:39.166368","EPHEMERIS_TYPE":"0","MEAN_MOTION":"15.06394462","INCLINATION":"53.0543","OBJECT_TYPE":"PAYLOAD","PERIOD":"95.592","BSTAR":"0.00004334200000","COUNTRY_CODE":"US","CLASSIFICATION_TYPE":"U","OBJECT_ID":"2020-062U","RA_OF_ASC_NODE":"153.7099","REV_AT_EPOCH":"15427","ARG_OF_PERICENTER":"87.7197","OBJECT_NAME":"STARLINK-1764","TIME_SYSTEM":"UTC","MEAN_MOTION_DOT":"0.00000364","TLE_LINE2":"2 46343  53.0543 153.7099 0001239  87.7197 272.3934 15.06394462154279","ECCENTRICITY":"0.00012390","MEAN_ELEMENT_THEORY":"SGP4","PERIAPSIS":"546.372","MEAN_ANOMALY":"272.3934","LAUNCH_DATE":"2020-09-03","APOAPSIS":"548.089","REF_FRAME":"TEME","GP_ID":"234060237","FILE":"3934686","NORAD_CAT_ID":"46343","RCS_SIZE":"LARGE"},{"COUNTRY_CODE":"US","CLASSIFICATION_TYPE":"U","RA_OF_ASC_NODE":"152.4344","OBJECT_ID":"2020-062V","DECAY_DATE":null,"TLE_LINE1":"1 46344U 20062V   23167.66482040  .00001137  00000-0  95194-4 0  9994","SEMIMAJOR_AXIS":"6925.347","ELEMENT_SET_NO":"999","CENTER_NAME":"EARTH","MEAN_MOTION_DDOT":"0.0000000000000","SITE":"AFETR","OBJECT_TYPE":"PAYLOAD","INCLINATION":"53.0541","BSTAR":"0.00009519400000","PERIOD":"95.592","EPOCH":"2023-06-16T15:57:20.482560","EPHEMERIS_TYPE":"0","MEAN_MOTION":"15.06400415","LAUNCH_DATE":"2020-09-03","APOAPSIS":"548.052","PERIAPSIS":"546.373","MEAN_ELEMENT_THEORY":"SGP4","MEAN_ANOMALY":"267.9880","ECCENTRICITY":"0.00012120","FILE":"3934949","RCS_SIZE":"LARGE","NORAD_CAT_ID":"46344","GP_ID":"234092379","REF_FRAME":"TEME","ARG_OF_PERICENTER":"92.1248","REV_AT_EPOCH":"15431","TIME_SYSTEM":"UTC","OBJECT_NAME":"STARLINK-1765","TLE_LINE2":"2 46344  53.0541 152.4344 0001212  92.1248 267.9880 15.06400415154316","MEAN_MOTION_DOT":"0.00001137"}];
